[
    {
        "Altitude(m)": 604983.0530755678,
        "Argument of Periapsis(deg)": 0.0,
        "Eccentricity": 0.0,
        "Inclination(deg)": 60.0,
        "Latitude(deg)": -0.09273669909818591,
        "Longitude(deg)": -59.91608355056443,
        "Mean Anomaly(deg)": -180.0,
        "RAAN(deg)": 220.00000000000003,
        "Satellite Name": "Test1 979",
        "Satellite Number": 979,
        "Semi-Major Axis(m)": 6980739.136638005,
        "Time(s)": 0
    },
    {
        "Altitude(m)": 605055.3331546686,
        "Argument of Periapsis(deg)": 0.00010418945913296404,
        "Eccentricity": 0.0,
        "Inclination(deg)": 60.0,
        "Latitude(deg)": -0.6331464302103387,
        "Longitude(deg)": -59.647958352092004,
        "Mean Anomaly(deg)": -179.37989385453818,
        "RAAN(deg)": 219.99957995086027,
        "Satellite Name": "Test1 979",
        "Satellite Number": 979,
        "Semi-Major Axis(m)": 6980739.136638005,
        "Time(s)": 10
    }
]